STARLINK-34058          
1 63818U 25092Q   26082.45379709  .00020645  00000+0  75771-3 0  9992
2 63818  42.9996  94.4732 0001406 266.6311  93.4379 15.27577725 50774
STARLINK-34055          
1 63819U 25092R   26082.43466399  .00031891  00000+0  11627-2 0  9997
2 63819  42.9990  95.1676 0002302 248.7192 111.3413 15.27598457 50716
STARLINK-33794          
1 63820U 25092S   26082.49363892  .00039104  00000+0  14236-2 0  9993
2 63820  43.0061  94.7727 0003739 274.2587  85.7837 15.27562750 50720
STARLINK-34047          
1 63821U 25092T   26082.48977381  .00028388  00000+0  10369-2 0  9992
2 63821  43.0043  94.7404 0001593 241.0805 118.9887 15.27588777 50770
STARLINK-34094          
1 63822U 25092U   26082.43515050  .00030759  00000+0  11221-2 0  9992
2 63822  43.0000  91.6990 0001117 270.0704  90.0020 15.27594183 50803
STARLINK-34043          
1 63823U 25092V   26082.30680109  .00020838  00000+0  76504-3 0  9990
2 63823  42.9990  91.5899 0000890 240.0095 120.0668 15.27561591 50746
STARLINK-34025          
1 63824U 25092W   26081.47170658  .00025478  00000+0  93166-3 0  9999
2 63824  42.9973  99.9991 0001507 270.4429  89.6250 15.27598050 50519
STARLINK-33874          
1 63825U 25092X   26082.48463331  .00022978  00000+0  84206-3 0  9992
2 63825  43.0061  94.6988 0001773 254.8618 105.2037 15.27575000 50775
STARLINK-33781          
1 63826U 25092Y   26082.30646839  .00024978  00000+0  91420-3 0  9998
2 63826  42.9976  95.9413 0001225 265.8802  94.1910 15.27577313 50747
STARLINK-33891          
1 63827U 25092Z   26082.11672812  .00028170  00000+0  10291-2 0  9992
2 63827  43.0026  97.0932 0000731 246.5793 113.4982 15.27586637 50609
STARLINK-33903          
1 63828U 25092AA  26082.41413017  .00033609  00000+0  12255-2 0  9991
2 63828  43.0022  95.0256 0000293  48.9366 311.1511 15.27575166 50763
STARLINK-33889          
1 63829U 25092AB  26082.39997868  .00021255  00000+0  77946-3 0  9993
2 63829  42.9973  94.9308 0000566 284.2132  75.8657 15.27589839 50657
STARLINK-33984          
1 63830U 25092AC  26082.40768842  .00026755  00000+0  97869-3 0  9991
2 63830  43.0014  94.9770 0002347 265.5575  94.5009 15.27564291 50713
STARLINK-33940          
1 63831U 25092AD  26082.41796780  .00020316  00000+0  74563-3 0  9998
2 63831  43.0008  95.0646 0000985 255.1708 104.9035 15.27586325 50762
STARLINK-33978          
1 63832U 25092AE  26082.46793043  .00019493  00000+0  71596-3 0  9990
2 63832  43.0013  94.5817 0001278 277.5826  82.4881 15.27581935 50770
STARLINK-34018          
1 63836U 25093A   26082.11308996  .00028198  00000+0  10306-2 0  9999
2 63836  43.0028   2.2259 0001857 272.1203  87.9436 15.27569243 50021
STARLINK-34053          
1 63837U 25093B   26082.11051961  .00048925  00000+0  17749-2 0  9995
2 63837  43.0030   2.2012 0001951 257.6125 102.4509 15.27593790 49967
