[{"OBJECT_NAME":"STARLINK-34058","OBJECT_ID":"2025-092Q","EPOCH":"2026-03-23T10:53:28.068576","MEAN_MOTION":15.27577725,"ECCENTRICITY":0.0001406,"INCLINATION":42.9996,"RA_OF_ASC_NODE":94.4732,"ARG_OF_PERICENTER":266.6311,"MEAN_ANOMALY":93.4379,"EPHEMERIS_TYPE":0,"CLASSIFICATION_TYPE":"U","NORAD_CAT_ID":63818,"ELEMENT_SET_NO":999,"REV_AT_EPOCH":5077,"BSTAR":0.00075771,"MEAN_MOTION_DOT":0.00020645,"MEAN_MOTION_DDOT":0},{"OBJECT_NAME":"STARLINK-34055","OBJECT_ID":"2025-092R","EPOCH":"2026-03-23T10:25:54.968736","MEAN_MOTION":15.27598457,"ECCENTRICITY":0.0002302,"INCLINATION":42.999,"RA_OF_ASC_NODE":95.1676,"ARG_OF_PERICENTER":248.7192,"MEAN_ANOMALY":111.3413,"EPHEMERIS_TYPE":0,"CLASSIFICATION_TYPE":"U","NORAD_CAT_ID":63819,"ELEMENT_SET_NO":999,"REV_AT_EPOCH":5071,"BSTAR":0.0011627,"MEAN_MOTION_DOT":0.00031891,"MEAN_MOTION_DDOT":0},{"OBJECT_NAME":"STARLINK-33794","OBJECT_ID":"2025-092S","EPOCH":"2026-03-23T11:50:50.402688","MEAN_MOTION":15.2756275,"ECCENTRICITY":0.0003739,"INCLINATION":43.0061,"RA_OF_ASC_NODE":94.7727,"ARG_OF_PERICENTER":274.2587,"MEAN_ANOMALY":85.7837,"EPHEMERIS_TYPE":0,"CLASSIFICATION_TYPE":"U","NORAD_CAT_ID":63820,"ELEMENT_SET_NO":999,"REV_AT_EPOCH":5072,"BSTAR":0.0014236,"MEAN_MOTION_DOT":0.00039104,"MEAN_MOTION_DDOT":0},{"OBJECT_NAME":"STARLINK-34047","OBJECT_ID":"2025-092T","EPOCH":"2026-03-23T11:45:16.457184","MEAN_MOTION":15.27588777,"ECCENTRICITY":0.0001593,"INCLINATION":43.0043,"RA_OF_ASC_NODE":94.7404,"ARG_OF_PERICENTER":241.0805,"MEAN_ANOMALY":118.9887,"EPHEMERIS_TYPE":0,"CLASSIFICATION_TYPE":"U","NORAD_CAT_ID":63821,"ELEMENT_SET_NO":999,"REV_AT_EPOCH":5077,"BSTAR":0.0010369,"MEAN_MOTION_DOT":0.00028388,"MEAN_MOTION_DDOT":0},{"OBJECT_NAME":"STARLINK-34094","OBJECT_ID":"2025-092U","EPOCH":"2026-03-23T10:26:37.003200","MEAN_MOTION":15.27594183,"ECCENTRICITY":0.0001117,"INCLINATION":43,"RA_OF_ASC_NODE":91.699,"ARG_OF_PERICENTER":270.0704,"MEAN_ANOMALY":90.002,"EPHEMERIS_TYPE":0,"CLASSIFICATION_TYPE":"U","NORAD_CAT_ID":63822,"ELEMENT_SET_NO":999,"REV_AT_EPOCH":5080,"BSTAR":0.0011221,"MEAN_MOTION_DOT":0.00030759,"MEAN_MOTION_DDOT":0},{"OBJECT_NAME":"STARLINK-34043","OBJECT_ID":"2025-092V","EPOCH":"2026-03-23T07:21:47.614176","MEAN_MOTION":15.27561591,"ECCENTRICITY":8.9e-5,"INCLINATION":42.999,"RA_OF_ASC_NODE":91.5899,"ARG_OF_PERICENTER":240.0095,"MEAN_ANOMALY":120.0668,"EPHEMERIS_TYPE":0,"CLASSIFICATION_TYPE":"U","NORAD_CAT_ID":63823,"ELEMENT_SET_NO":999,"REV_AT_EPOCH":5074,"BSTAR":0.00076504,"MEAN_MOTION_DOT":0.00020838,"MEAN_MOTION_DDOT":0},{"OBJECT_NAME":"STARLINK-34025","OBJECT_ID":"2025-092W","EPOCH":"2026-03-22T11:19:15.448512","MEAN_MOTION":15.2759805,"ECCENTRICITY":0.00015079,"INCLINATION":42.9973,"RA_OF_ASC_NODE":99.9991,"ARG_OF_PERICENTER":270.4429,"MEAN_ANOMALY":89.625,"EPHEMERIS_TYPE":0,"CLASSIFICATION_TYPE":"U","NORAD_CAT_ID":63824,"ELEMENT_SET_NO":999,"REV_AT_EPOCH":5051,"BSTAR":0.00093166458,"MEAN_MOTION_DOT":0.00025478,"MEAN_MOTION_DDOT":0},{"OBJECT_NAME":"STARLINK-33874","OBJECT_ID":"2025-092X","EPOCH":"2026-03-23T11:37:52.317984","MEAN_MOTION":15.27575,"ECCENTRICITY":0.0001773,"INCLINATION":43.0061,"RA_OF_ASC_NODE":94.6988,"ARG_OF_PERICENTER":254.8618,"MEAN_ANOMALY":105.2037,"EPHEMERIS_TYPE":0,"CLASSIFICATION_TYPE":"U","NORAD_CAT_ID":63825,"ELEMENT_SET_NO":999,"REV_AT_EPOCH":5077,"BSTAR":0.00084206,"MEAN_MOTION_DOT":0.00022978,"MEAN_MOTION_DDOT":0},{"OBJECT_NAME":"STARLINK-33781","OBJECT_ID":"2025-092Y","EPOCH":"2026-03-23T07:21:18.868896","MEAN_MOTION":15.27577313,"ECCENTRICITY":0.0001225,"INCLINATION":42.9976,"RA_OF_ASC_NODE":95.9413,"ARG_OF_PERICENTER":265.8802,"MEAN_ANOMALY":94.191,"EPHEMERIS_TYPE":0,"CLASSIFICATION_TYPE":"U","NORAD_CAT_ID":63826,"ELEMENT_SET_NO":999,"REV_AT_EPOCH":5074,"BSTAR":0.0009142,"MEAN_MOTION_DOT":0.00024978,"MEAN_MOTION_DDOT":0},{"OBJECT_NAME":"STARLINK-33891","OBJECT_ID":"2025-092Z","EPOCH":"2026-03-23T02:48:05.309568","MEAN_MOTION":15.27586637,"ECCENTRICITY":7.31e-5,"INCLINATION":43.0026,"RA_OF_ASC_NODE":97.0932,"ARG_OF_PERICENTER":246.5793,"MEAN_ANOMALY":113.4982,"EPHEMERIS_TYPE":0,"CLASSIFICATION_TYPE":"U","NORAD_CAT_ID":63827,"ELEMENT_SET_NO":999,"REV_AT_EPOCH":5060,"BSTAR":0.0010290854,"MEAN_MOTION_DOT":0.0002817,"MEAN_MOTION_DDOT":0},{"OBJECT_NAME":"STARLINK-33903","OBJECT_ID":"2025-092AA","EPOCH":"2026-03-23T09:56:20.846688","MEAN_MOTION":15.27575166,"ECCENTRICITY":2.93e-5,"INCLINATION":43.0022,"RA_OF_ASC_NODE":95.0256,"ARG_OF_PERICENTER":48.9366,"MEAN_ANOMALY":311.1511,"EPHEMERIS_TYPE":0,"CLASSIFICATION_TYPE":"U","NORAD_CAT_ID":63828,"ELEMENT_SET_NO":999,"REV_AT_EPOCH":5076,"BSTAR":0.0012255,"MEAN_MOTION_DOT":0.00033609,"MEAN_MOTION_DDOT":0},{"OBJECT_NAME":"STARLINK-33889","OBJECT_ID":"2025-092AB","EPOCH":"2026-03-23T09:35:58.157952","MEAN_MOTION":15.27589839,"ECCENTRICITY":5.66e-5,"INCLINATION":42.9973,"RA_OF_ASC_NODE":94.9308,"ARG_OF_PERICENTER":284.2132,"MEAN_ANOMALY":75.8657,"EPHEMERIS_TYPE":0,"CLASSIFICATION_TYPE":"U","NORAD_CAT_ID":63829,"ELEMENT_SET_NO":999,"REV_AT_EPOCH":5065,"BSTAR":0.00077946,"MEAN_MOTION_DOT":0.00021255,"MEAN_MOTION_DDOT":0},{"OBJECT_NAME":"STARLINK-33984","OBJECT_ID":"2025-092AC","EPOCH":"2026-03-23T09:47:04.279488","MEAN_MOTION":15.27564291,"ECCENTRICITY":0.0002347,"INCLINATION":43.0014,"RA_OF_ASC_NODE":94.977,"ARG_OF_PERICENTER":265.5575,"MEAN_ANOMALY":94.5009,"EPHEMERIS_TYPE":0,"CLASSIFICATION_TYPE":"U","NORAD_CAT_ID":63830,"ELEMENT_SET_NO":999,"REV_AT_EPOCH":5071,"BSTAR":0.00097869,"MEAN_MOTION_DOT":0.00026755,"MEAN_MOTION_DDOT":0},{"OBJECT_NAME":"STARLINK-33940","OBJECT_ID":"2025-092AD","EPOCH":"2026-03-23T10:01:52.417920","MEAN_MOTION":15.27586325,"ECCENTRICITY":9.85e-5,"INCLINATION":43.0008,"RA_OF_ASC_NODE":95.0646,"ARG_OF_PERICENTER":255.1708,"MEAN_ANOMALY":104.9035,"EPHEMERIS_TYPE":0,"CLASSIFICATION_TYPE":"U","NORAD_CAT_ID":63831,"ELEMENT_SET_NO":999,"REV_AT_EPOCH":5076,"BSTAR":0.00074563,"MEAN_MOTION_DOT":0.00020316,"MEAN_MOTION_DDOT":0},{"OBJECT_NAME":"STARLINK-33978","OBJECT_ID":"2025-092AE","EPOCH":"2026-03-23T11:13:49.189152","MEAN_MOTION":15.27581935,"ECCENTRICITY":0.0001278,"INCLINATION":43.0013,"RA_OF_ASC_NODE":94.5817,"ARG_OF_PERICENTER":277.5826,"MEAN_ANOMALY":82.4881,"EPHEMERIS_TYPE":0,"CLASSIFICATION_TYPE":"U","NORAD_CAT_ID":63832,"ELEMENT_SET_NO":999,"REV_AT_EPOCH":5077,"BSTAR":0.00071596,"MEAN_MOTION_DOT":0.00019493,"MEAN_MOTION_DDOT":0},{"OBJECT_NAME":"STARLINK-34018","OBJECT_ID":"2025-093A","EPOCH":"2026-03-23T02:42:50.972544","MEAN_MOTION":15.27569243,"ECCENTRICITY":0.0001857,"INCLINATION":43.0028,"RA_OF_ASC_NODE":2.2259,"ARG_OF_PERICENTER":272.1203,"MEAN_ANOMALY":87.9436,"EPHEMERIS_TYPE":0,"CLASSIFICATION_TYPE":"U","NORAD_CAT_ID":63836,"ELEMENT_SET_NO":999,"REV_AT_EPOCH":5002,"BSTAR":0.001030634,"MEAN_MOTION_DOT":0.00028198,"MEAN_MOTION_DDOT":0},{"OBJECT_NAME":"STARLINK-34053","OBJECT_ID":"2025-093B","EPOCH":"2026-03-23T02:39:08.894304","MEAN_MOTION":15.2759379,"ECCENTRICITY":0.00019519,"INCLINATION":43.003,"RA_OF_ASC_NODE":2.2012,"ARG_OF_PERICENTER":257.6125,"MEAN_ANOMALY":102.4509,"EPHEMERIS_TYPE":0,"CLASSIFICATION_TYPE":"U","NORAD_CAT_ID":63837,"ELEMENT_SET_NO":999,"REV_AT_EPOCH":4996,"BSTAR":0.0017748937,"MEAN_MOTION_DOT":0.00048925,"MEAN_MOTION_DDOT":0}]
